{"type": "FeatureCollection", "features": [ {"type": "Feature", "properties": {"norad_id": 31412, "name": "FENGYUN 1C DEB", "group": "fengyun-1c-debris", "lat": -80.011569685117, "lon": -8.296036949965352, "alt_km": 830.655733009211, "timestamp": "2025-12-15T07:02:37.899030+00:00", "meta": {"OBJECT_NAME": "FENGYUN 1C DEB", "OBJECT_ID": "1999-025BSY", "EPOCH": "2025-12-14T19:31:01.164288", "MEAN_MOTION": 14.09854873, "ECCENTRICITY": 0.00835182, "INCLINATION": 98.5472, "RA_OF_ASC_NODE": 292.6091, "ARG_OF_PERICENTER": 329.7652, "MEAN_ANOMALY": 29.8714, "EPHEMERIS_TYPE": 0, "CLASSIFICATION_TYPE": "U", "NORAD_CAT_ID": 31412, "ELEMENT_SET_NO": 999, "REV_AT_EPOCH": 61021, "BSTAR": 0.0017478212, "MEAN_MOTION_DOT": 3.135e-05, "MEAN_MOTION_DDOT": 0}, "tle": {"line1": "1 31412U 99025BSY 25348.81320792  .00003135  00000+0  17478-2 0  9990", "line2": "2 31412  98.5472 292.6091 0083518 329.7652  29.8714 14.09854873610216"}}, "geometry": {"type": "Point", "coordinates": [-8.296036949965352, -80.011569685117]}}, {"type": "Feature", "properties": {"norad_id": 31415, "name": "FENGYUN 1C DEB", "group": "fengyun-1c-debris", "lat": -39.334543736847486, "lon": -50.38111452837207, "alt_km": 809.5284030164512, "timestamp": "2025-12-15T07:02:37.899040+00:00", "meta": {"OBJECT_NAME": "FENGYUN 1C DEB", "OBJECT_ID": "1999-025BTB", "EPOCH": "2025-12-14T14:26:42.789696", "MEAN_MOTION": 14.30617484, "ECCENTRICITY": 0.00641277, "INCLINATION": 99.6387, "RA_OF_ASC_NODE": 300.8477, "ARG_OF_PERICENTER": 69.4394, "MEAN_ANOMALY": 291.365, "EPHEMERIS_TYPE": 0, "CLASSIFICATION_TYPE": "U", "NORAD_CAT_ID": 31415, "ELEMENT_SET_NO": 999, "REV_AT_EPOCH": 62857, "BSTAR": 0.0013058291, "MEAN_MOTION_DOT": 3.436e-05, "MEAN_MOTION_DDOT": 0}, "tle": {"line1": "1 31415U 99025BTB 25348.60188414  .00003436  00000+0  13058-2 0  9997", "line2": "2 31415  99.6387 300.8477 0064127  69.4394 291.3650 14.30617484628574"}}, "geometry": {"type": "Point", "coordinates": [-50.38111452837207, -39.334543736847486]}}, {"type": "Feature", "properties": {"norad_id": 31416, "name": "FENGYUN 1C DEB", "group": "fengyun-1c-debris", "lat": 80.30569228054136, "lon": -71.41034791584117, "alt_km": 830.6222804893778, "timestamp": "2025-12-15T07:02:37.899050+00:00", "meta": {"OBJECT_NAME": "FENGYUN 1C DEB", "OBJECT_ID": "1999-025BTC", "EPOCH": "2025-12-13T21:15:53.800704", "MEAN_MOTION": 14.40675762, "ECCENTRICITY": 0.01329181, "INCLINATION": 99.0508, "RA_OF_ASC_NODE": 38.1827, "ARG_OF_PERICENTER": 247.6022, "MEAN_ANOMALY": 111.1038, "EPHEMERIS_TYPE": 0, "CLASSIFICATION_TYPE": "U", "NORAD_CAT_ID": 31416, "ELEMENT_SET_NO": 999, "REV_AT_EPOCH": 65536, "BSTAR": 0.00041100406, "MEAN_MOTION_DOT": 1.402e-05, "MEAN_MOTION_DDOT": 0}, "tle": {"line1": "1 31416U 99025BTC 25347.88603936  .00001402  00000+0  41100-3 0  9999", "line2": "2 31416  99.0508  38.1827 0132918 247.6022 111.1038 14.40675762655366"}}, "geometry": {"type": "Point", "coordinates": [-71.41034791584117, 80.30569228054136]}}, {"type": "Feature", "properties": {"norad_id": 31420, "name": "FENGYUN 1C DEB", "group": "fengyun-1c-debris", "lat": -59.991735161359095, "lon": -99.7632875148615, "alt_km": 672.3605472826757, "timestamp": "2025-12-15T07:02:37.899061+00:00", "meta": {"OBJECT_NAME": "FENGYUN 1C DEB", "OBJECT_ID": "1999-025BTG", "EPOCH": "2025-12-12T16:07:19.593120", "MEAN_MOTION": 14.4081029, "ECCENTRICITY": 0.01357889, "INCLINATION": 97.5578, "RA_OF_ASC_NODE": 244.6278, "ARG_OF_PERICENTER": 328.3513, "MEAN_ANOMALY": 60.6144, "EPHEMERIS_TYPE": 0, "CLASSIFICATION_TYPE": "U", "NORAD_CAT_ID": 31420, "ELEMENT_SET_NO": 999, "REV_AT_EPOCH": 64993, "BSTAR": 0.0010850472, "MEAN_MOTION_DOT": 3.836e-05, "MEAN_MOTION_DDOT": 0}, "tle": {"line1": "1 31420U 99025BTG 25346.67175455  .00003836  00000+0  10850-2 0  9990", "line2": "2 31420  97.5578 244.6278 0135788 328.3513  60.6144 14.40810290649934"}}, "geometry": {"type": "Point", "coordinates": [-99.7632875148615, -59.991735161359095]}}, {"type": "Feature", "properties": {"norad_id": 31422, "name": "FENGYUN 1C DEB", "group": "fengyun-1c-debris", "lat": -75.657657939475, "lon": 23.274110672295222, "alt_km": 843.9787487320527, "timestamp": "2025-12-15T07:02:37.899071+00:00", "meta": {"OBJECT_NAME": "FENGYUN 1C DEB", "OBJECT_ID": "1999-025BTJ", "EPOCH": "2025-12-14T06:10:27.181920", "MEAN_MOTION": 14.09624109, "ECCENTRICITY": 0.003388, "INCLINATION": 98.7613, "RA_OF_ASC_NODE": 345.1705, "ARG_OF_PERICENTER": 296.6174, "MEAN_ANOMALY": 129.2856, "EPHEMERIS_TYPE": 0, "CLASSIFICATION_TYPE": "U", "NORAD_CAT_ID": 31422, "ELEMENT_SET_NO": 999, "REV_AT_EPOCH": 95683, "BSTAR": 0.00043847474, "MEAN_MOTION_DOT": 7.29e-06, "MEAN_MOTION_DDOT": 0}, "tle": {"line1": "1 31422U 99025BTJ 25348.25725905  .00000729  00000+0  43847-3 0  9990", "line2": "2 31422  98.7613 345.1705 0033880 296.6174 129.2856 14.09624109956830"}}, "geometry": {"type": "Point", "coordinates": [23.274110672295222, -75.657657939475]}}, {"type": "Feature", "properties": {"norad_id": 31423, "name": "FENGYUN 1C DEB", "group": "fengyun-1c-debris", "lat": 20.105235381233662, "lon": 153.21861799552397, "alt_km": 792.0808993719029, "timestamp": "2025-12-15T07:02:37.899081+00:00", "meta": {"OBJECT_NAME": "FENGYUN 1C DEB", "OBJECT_ID": "1999-025BTK", "EPOCH": "2025-12-14T16:47:41.305632", "MEAN_MOTION": 14.22973059, "ECCENTRICITY": 0.00361835, "INCLINATION": 98.5835, "RA_OF_ASC_NODE": 329.4706, "ARG_OF_PERICENTER": 188.2346, "MEAN_ANOMALY": 171.8243, "EPHEMERIS_TYPE": 0, "CLASSIFICATION_TYPE": "U", "NORAD_CAT_ID": 31423, "ELEMENT_SET_NO": 999, "REV_AT_EPOCH": 96996, "BSTAR": 0.00017353405, "MEAN_MOTION_DOT": 3.5e-06, "MEAN_MOTION_DDOT": 0}, "tle": {"line1": "1 31423U 99025BTK 25348.69978363  .00000350  00000+0  17353-3 0  9990", "line2": "2 31423  98.5835 329.4706 0036183 188.2346 171.8243 14.22973059969964"}}, "geometry": {"type": "Point", "coordinates": [153.21861799552397, 20.105235381233662]}}, {"type": "Feature", "properties": {"norad_id": 31424, "name": "FENGYUN 1C DEB", "group": "fengyun-1c-debris", "lat": 34.59139503627584, "lon": -140.9580299717981, "alt_km": 815.4033085035398, "timestamp": "2025-12-15T07:02:37.899091+00:00", "meta": {"OBJECT_NAME": "FENGYUN 1C DEB", "OBJECT_ID": "1999-025BTL", "EPOCH": "2025-12-13T08:19:48.668448", "MEAN_MOTION": 14.08359893, "ECCENTRICITY": 0.00945277, "INCLINATION": 98.4814, "RA_OF_ASC_NODE": 31.3053, "ARG_OF_PERICENTER": 103.6581, "MEAN_ANOMALY": 257.5137, "EPHEMERIS_TYPE": 0, "CLASSIFICATION_TYPE": "U", "NORAD_CAT_ID": 31424, "ELEMENT_SET_NO": 999, "REV_AT_EPOCH": 63179, "BSTAR": 0.00039906877, "MEAN_MOTION_DOT": 6.72e-06, "MEAN_MOTION_DDOT": 0}, "tle": {"line1": "1 31424U 99025BTL 25347.34709107  .00000672  00000+0  39907-3 0  9996", "line2": "2 31424  98.4814  31.3053 0094527 103.6581 257.5137 14.08359893631792"}}, "geometry": {"type": "Point", "coordinates": [-140.9580299717981, 34.59139503627584]}}, {"type": "Feature", "properties": {"norad_id": 31426, "name": "FENGYUN 1C DEB", "group": "fengyun-1c-debris", "lat": 19.047500279278758, "lon": -30.297629875834712, "alt_km": 702.4585182798546, "timestamp": "2025-12-15T07:02:37.899101+00:00", "meta": {"OBJECT_NAME": "FENGYUN 1C DEB", "OBJECT_ID": "1999-025BTN", "EPOCH": "2025-12-14T09:40:59.882304", "MEAN_MOTION": 13.90090518, "ECCENTRICITY": 0.03247401, "INCLINATION": 98.5789, "RA_OF_ASC_NODE": 145.8922, "ARG_OF_PERICENTER": 181.4492, "MEAN_ANOMALY": 208.7888, "EPHEMERIS_TYPE": 0, "CLASSIFICATION_TYPE": "U", "NORAD_CAT_ID": 31426, "ELEMENT_SET_NO": 999, "REV_AT_EPOCH": 93596, "BSTAR": 0.0029295096, "MEAN_MOTION_DOT": 5.502e-05, "MEAN_MOTION_DDOT": 0}, "tle": {"line1": "1 31426U 99025BTN 25348.40347086  .00005502  00000+0  29295-2 0  9995", "line2": "2 31426  98.5789 145.8922 0324740 181.4492 208.7888 13.90090518935963"}}, "geometry": {"type": "Point", "coordinates": [-30.297629875834712, 19.047500279278758]}}, {"type": "Feature", "properties": {"norad_id": 31427, "name": "FENGYUN 1C DEB", "group": "fengyun-1c-debris", "lat": 6.905065778217892, "lon": 97.40152636790948, "alt_km": 677.1958060821926, "timestamp": "2025-12-15T07:02:37.899112+00:00", "meta": {"OBJECT_NAME": "FENGYUN 1C DEB", "OBJECT_ID": "1999-025BTP", "EPOCH": "2025-12-14T06:19:07.714272", "MEAN_MOTION": 14.587198, "ECCENTRICITY": 0.00312371, "INCLINATION": 98.6695, "RA_OF_ASC_NODE": 97.3858, "ARG_OF_PERICENTER": 13.8348, "MEAN_ANOMALY": 346.3699, "EPHEMERIS_TYPE": 0, "CLASSIFICATION_TYPE": "U", "NORAD_CAT_ID": 31427, "ELEMENT_SET_NO": 999, "REV_AT_EPOCH": 96903, "BSTAR": 0.0025460738, "MEAN_MOTION_DOT": 0.00011929, "MEAN_MOTION_DDOT": 0}, "tle": {"line1": "1 31427U 99025BTP 25348.26328373  .00011929  00000+0  25461-2 0  9999", "line2": "2 31427  98.6695  97.3858 0031237  13.8348 346.3699 14.58719800969035"}}, "geometry": {"type": "Point", "coordinates": [97.40152636790948, 6.905065778217892]}}, {"type": "Feature", "properties": {"norad_id": 31428, "name": "FENGYUN 1C DEB", "group": "fengyun-1c-debris", "lat": -47.78395608061017, "lon": -29.001138697636133, "alt_km": 802.635422609842, "timestamp": "2025-12-15T07:02:37.899122+00:00", "meta": {"OBJECT_NAME": "FENGYUN 1C DEB", "OBJECT_ID": "1999-025BTQ", "EPOCH": "2025-12-14T04:41:58.041024", "MEAN_MOTION": 14.4202385, "ECCENTRICITY": 0.00638979, "INCLINATION": 99.039, "RA_OF_ASC_NODE": 319.7318, "ARG_OF_PERICENTER": 149.4526, "MEAN_ANOMALY": 226.7029, "EPHEMERIS_TYPE": 0, "CLASSIFICATION_TYPE": "U", "NORAD_CAT_ID": 31428, "ELEMENT_SET_NO": 999, "REV_AT_EPOCH": 97531, "BSTAR": 0.00089325656, "MEAN_MOTION_DOT": 2.955e-05, "MEAN_MOTION_DDOT": 0}, "tle": {"line1": "1 31428U 99025BTQ 25348.19581066  .00002955  00000+0  89326-3 0  9992", "line2": "2 31428  99.0390 319.7318 0063897 149.4526 226.7029 14.42023850975318"}}, "geometry": {"type": "Point", "coordinates": [-29.001138697636133, -47.78395608061017]}}]}